OBJECT_NAME,OBJECT_ID,EPOCH,MEAN_MOTION,ECCENTRICITY,INCLINATION,RA_OF_ASC_NODE,ARG_OF_PERICENTER,MEAN_ANOMALY,EPHEMERIS_TYPE,CLASSIFICATION_TYPE,NORAD_CAT_ID,ELEMENT_SET_NO,REV_AT_EPOCH,BSTAR,MEAN_MOTION_DOT,MEAN_MOTION_DDOT
STARLINK-32003,2024-117G,2026-06-30T10:59:42.613440,15.30195933,.00011464,53.1600,233.1966,93.9572,266.1560,0,U,60097,999,11415,-.18786822E-4,-.915E-5,0
STARLINK-32026,2024-117H,2026-06-30T22:00:01.999584,15.34372585,.00011556,53.1582,231.0116,94.0275,302.6268,0,U,60098,999,586,.10087944E-2,.33832E-3,0
STARLINK-31732,2024-117J,2026-06-30T10:26:16.221408,15.30223091,.00009315,53.1598,233.0518,48.5098,311.5983,0,U,60099,999,11415,-.98051121E-4,-.3264E-4,0
STARLINK-31996,2024-117K,2026-06-30T22:00:01.999584,15.34388650,.00009945,53.1581,230.7805,66.5147,86.3058,0,U,60100,999,582,.10295313E-2,.34556E-3,0
STARLINK-31999,2024-117L,2026-06-30T22:00:01.999584,15.34368781,.00012479,53.1593,231.2415,67.9637,212.3937,0,U,60101,999,591,.99161841E-3,.33243E-3,0
STARLINK-31954,2024-117M,2026-06-30T22:00:01.999584,15.33552375,.00011291,53.1597,231.3535,84.6366,138.2963,0,U,60102,999,581,.14325718E-2,.47042E-3,0
STARLINK-32013,2024-117N,2026-06-30T10:03:37.374912,15.30210881,.00010291,53.1590,233.6658,77.6336,282.4780,0,U,60103,999,11414,.57007533E-4,.133E-4,0
STARLINK-32009,2024-117P,2026-06-30T11:06:03.204576,15.34395209,.00009776,53.1592,233.2004,86.0291,274.0824,0,U,60104,999,11415,.19842993E-4,.294E-5,0
STARLINK-32018,2024-117Q,2026-06-30T09:02:00.229056,15.34374368,.00014411,53.1590,233.3992,85.3381,274.7786,0,U,60105,999,11414,-.16077855E-3,-.58E-4,0
STARLINK-32045,2024-117R,2026-06-30T08:52:52.955904,15.34395101,.00016617,53.1564,233.3603,118.8528,241.2641,0,U,60106,999,11414,.37151096E-4,.879E-5,0
STARLINK-32035,2024-117S,2026-06-30T22:00:01.999584,15.33703838,.00022435,53.1581,231.0765,108.3021,254.1196,0,U,60107,999,591,.23202265E-1,.830757E-2,0
STARLINK-32042,2024-117T,2026-06-30T14:03:15.658560,15.30192326,.00011403,53.1596,232.5680,80.4609,279.6521,0,U,60108,999,11417,-.11564012E-4,-.701E-5,0
STARLINK-32040,2024-117U,2026-06-30T10:29:18.638592,15.30226335,.00009156,53.1592,233.0685,59.7262,300.3829,0,U,60109,999,11415,-.14562345E-3,-.4673E-4,0
STARLINK-32001,2024-117V,2026-06-30T22:00:01.999584,15.34374016,.0001092,53.1575,230.7550,94.0445,70.5369,0,U,60110,999,587,.10733627E-2,.36033E-3,0
STARLINK-32015,2024-117W,2026-06-30T10:32:21.259680,15.30196221,.00010362,53.1588,233.0744,92.3165,267.7955,0,U,60111,999,11415,.21025227E-4,.264E-5,0
STARLINK-32024,2024-117X,2026-06-30T13:58:43.718016,15.30183435,.00010259,53.1590,232.5473,91.3517,268.7602,0,U,60112,999,11417,-.4119437E-4,-.1578E-4,0
STARLINK-11201 [DTC],2024-118A,2026-06-29T23:14:02.842944,15.69739734,.00006928,53.1588,28.0829,90.1228,269.9870,0,U,60113,999,11562,-.38281212E-4,-.5228E-4,0
STARLINK-11198 [DTC],2024-118B,2026-06-29T20:03:37.436544,15.69715077,.00007409,53.1584,28.6786,96.2273,263.8829,0,U,60114,999,11560,.3706999E-5,-.139E-5,0
STARLINK-11112 [DTC],2024-118C,2026-06-30T14:16:44.647680,15.69725129,.00008782,53.1604,24.8773,73.2492,286.8623,0,U,60115,999,11572,.19877142E-4,.1822E-4,0
STARLINK-11210 [DTC],2024-118D,2026-06-29T22:52:51.835008,15.69711503,.0000883,53.1608,27.9896,122.9902,237.1201,0,U,60116,999,11562,.8133987E-5,.397E-5,0
STARLINK-11203 [DTC],2024-118E,2026-06-29T19:42:26.114976,15.69709464,.00007678,53.1585,28.5795,118.5068,241.6028,0,U,60117,999,11560,.1111196E-5,-.453E-5,0
STARLINK-11177 [DTC],2024-118F,2026-06-29T19:35:22.780032,15.69696384,.00008412,53.1591,28.5493,86.2999,273.8115,0,U,60118,999,11560,-.806999E-5,-.1565E-4,0
STARLINK-11127 [DTC],2024-118G,2026-06-30T22:58:36.806880,15.69713824,.00010472,53.1601,22.8668,67.2916,292.8213,0,U,60119,999,11578,.3185217E-5,-.203E-5,0
STARLINK-11164 [DTC],2024-118H,2026-06-30T22:51:33.007104,15.69717977,.00008413,53.1579,22.8340,82.0741,278.0373,0,U,60120,999,11578,.43400849E-4,.4674E-4,0
STARLINK-11119 [DTC],2024-118J,2026-06-30T22:30:21.783168,15.69706240,.00010427,53.1588,22.7362,84.0241,276.0896,0,U,60121,999,11578,-.2948745E-5,-.946E-5,0
STARLINK-11157 [DTC],2024-118K,2026-06-30T22:37:25.290912,15.69710169,.00009253,53.1595,22.7659,103.3487,256.7634,0,U,60122,999,11578,.507883E-5,.27E-6,0
STARLINK-11162 [DTC],2024-118L,2026-06-29T23:28:01.805952,15.69728973,.00008567,53.1594,27.4111,70.0237,290.0873,0,U,60123,999,11563,-.11512036E-4,-.1984E-4,0
STARLINK-11161 [DTC],2024-118M,2026-06-29T23:21:07.119648,15.69704015,.00009963,53.1592,28.1135,62.6742,297.4378,0,U,60124,999,11562,.14326508E-4,.1147E-4,0
STARLINK-11160 [DTC],2024-118N,2026-06-30T13:34:23.088000,15.69711123,.00007473,53.1583,24.6806,82.5146,277.5957,0,U,60125,999,11572,.3208503E-5,-.199E-5,0
STARLINK-31846,2024-118P,2026-06-30T11:59:29.035104,15.31702045,.00011554,53.1595,222.3367,83.7576,276.3557,0,U,60126,999,11297,.2426141E-5,-.29E-5,0
STARLINK-31840,2024-118Q,2026-06-30T11:52:45.861600,15.31699318,.00012283,53.1588,222.3094,75.0978,285.0159,0,U,60127,999,11297,-.164353E-6,-.37E-5,0
STARLINK-31813,2024-118R,2026-06-30T12:53:07.044576,15.31703942,.00011495,53.1591,221.8616,85.0542,275.0591,0,U,60128,999,11298,.7554939E-5,-.131E-5,0
STARLINK-31845,2024-118S,2026-06-30T12:48:15.751296,15.30162095,.00011952,53.1593,220.4102,102.6540,257.4594,0,U,60129,999,11300,-.14093483E-3,-.4526E-4,0
STARLINK-31838,2024-118T,2026-06-30T09:58:37.877952,15.31709971,.00009779,53.1587,222.5239,92.8147,267.2966,0,U,60130,999,11296,.37548891E-4,.801E-5,0
STARLINK-31785,2024-118U,2026-06-30T12:46:23.159136,15.31709625,.00009444,53.1591,221.8296,91.2535,268.8575,0,U,60131,999,11298,.25187136E-4,.417E-5,0
STARLINK-31792,2024-118V,2026-06-30T07:41:43.799712,15.30191743,.00011686,53.1596,221.1736,101.6968,258.4164,0,U,60132,999,11297,.7309962E-4,.1806E-4,0
STARLINK-32043,2024-120A,2026-06-30T22:04:09.936480,15.34367507,.00012981,53.1591,153.1705,93.4521,266.6630,0,U,60135,999,11372,-.63135673E-4,-.2506E-4,0
STARLINK-32112,2024-120B,2026-06-30T22:07:09.566400,15.34388792,.0001296,53.1588,153.1878,79.6787,280.4362,0,U,60136,999,11380,.10521347E-3,.3179E-4,0
STARLINK-32050,2024-120C,2026-06-30T21:48:57.809088,15.34393458,.0001341,53.1598,153.1089,96.6045,263.5110,0,U,60137,999,11372,.4512373E-4,.1148E-4,0
STARLINK-32025,2024-120D,2026-06-30T22:43:23.649600,15.34383361,.00024224,53.1596,152.6286,107.7918,252.3349,0,U,60138,999,11373,-.25961235E-4,-.1254E-4,0
STARLINK-31694,2024-120F,2026-06-30T05:04:29.234208,15.34395343,.00013031,53.1604,156.5779,91.3084,268.8068,0,U,60140,999,11369,-.4538252E-5,-.53E-5,0
STARLINK-32036,2024-120G,2026-06-30T05:13:33.978432,15.34401616,.00012887,53.1603,156.6151,94.9464,265.1685,0,U,60141,999,11369,.53573511E-4,.1434E-4,0
STARLINK-32031,2024-120H,2026-06-30T22:40:21.241920,15.34388788,.00007935,53.1597,152.6216,92.2292,267.8801,0,U,60142,999,11381,.13590956E-4,.83E-6,0
STARLINK-32027,2024-120J,2026-06-30T22:46:26.656032,15.34366676,.00014754,53.1599,152.6039,92.8193,267.2978,0,U,60143,999,11381,-.55010962E-4,-.2232E-4,0
STARLINK-32033,2024-120K,2026-06-30T22:31:23.871936,15.34388629,.00012568,53.1609,153.2955,95.4265,264.6881,0,U,60144,999,11372,.16052372E-4,.166E-5,0
STARLINK-32029,2024-120L,2026-06-30T21:27:46.312128,15.34384734,.00012956,53.1596,153.0146,93.5354,266.5797,0,U,60145,999,11372,.19429767E-4,.28E-5,0
STARLINK-32127,2024-120M,2026-06-30T21:21:42.676992,15.34390849,.00013434,53.1593,152.9887,90.8574,269.2582,0,U,60146,999,11372,.1574706E-5,-.323E-5,0
STARLINK-32019,2024-120N,2026-06-30T21:24:44.389152,15.34390060,.00014775,53.1574,153.0027,80.5006,279.6164,0,U,60147,999,11372,.85762744E-4,.2521E-4,0
STARLINK-32021,2024-120P,2026-06-30T05:16:13.136736,15.31689251,.00014405,53.1598,146.6721,94.6127,265.5039,0,U,60148,999,11383,.93910403E-4,.2549E-4,0
STARLINK-32022,2024-120Q,2026-06-30T21:55:02.237376,15.34396284,.00012104,53.1598,153.1293,101.2154,258.8985,0,U,60149,999,11380,-.25766068E-4,-.1247E-4,0
STARLINK-32014,2024-120R,2026-06-30T22:22:18.242112,15.34386420,.00011879,53.1606,153.2485,90.9234,269.1905,0,U,60150,999,11372,.1213451E-4,.34E-6,0
STARLINK-32004,2024-120S,2026-06-30T22:13:12.751392,15.34387563,.00011951,53.1603,153.2086,87.6385,272.4755,0,U,60151,999,11380,-.5167546E-5,-.551E-5,0
STARLINK-32147,2024-120T,2026-06-30T21:58:04.105056,15.34386253,.00014709,53.1595,153.1473,91.4374,268.6798,0,U,60152,999,11372,-.821435E-6,-.404E-5,0
STARLINK-32131,2024-120U,2026-06-30T05:40:43.685472,15.34382380,.00012996,53.1577,156.0189,93.1929,266.9222,0,U,60153,999,11370,.29385268E-3,.9559E-4,0
STARLINK-32145,2024-120V,2026-06-30T21:15:39.929184,15.34382067,.0001362,53.1586,152.9585,95.0808,265.0350,0,U,60154,999,11372,.94620777E-4,.282E-4,0
STARLINK-32137,2024-120W,2026-06-30T04:34:11.806752,15.34383308,.00012727,53.1605,156.4405,69.1512,290.9627,0,U,60155,999,11361,.14335209E-4,.108E-5,0
STARLINK-32048,2024-120X,2026-06-30T05:58:53.789088,15.34390760,.00012493,53.1598,156.0961,88.3727,271.7419,0,U,60156,999,11362,.60669E-6,-.356E-5,0
STARLINK-32129,2024-120Y,2026-06-30T06:01:55.054560,15.34428843,.00018872,53.1594,156.1108,109.8050,250.3156,0,U,60157,999,11370,-.27415149E-3,-.9637E-4,0
STARLINK-11168 [DTC],2024-124A,2026-06-30T02:52:36.758496,15.69704731,.00010655,53.1599,326.9358,67.4148,292.6983,0,U,60183,999,11538,.3922392E-5,-.113E-5,0
STARLINK-11187 [DTC],2024-124B,2026-06-30T18:02:22.941024,15.69707706,.00007272,53.1593,323.7648,77.4784,282.6315,0,U,60184,999,11429,.4391429E-5,-.56E-6,0
STARLINK-11180 [DTC],2024-124C,2026-06-30T19:27:00.075456,15.69709566,.00008649,53.1601,323.4167,88.2119,271.8998,0,U,60185,999,11430,.9528156E-5,.566E-5,0
STARLINK-11197 [DTC],2024-124D,2026-06-30T19:19:55.981056,15.69741171,.00009288,53.1599,323.3845,48.8337,311.2761,0,U,60186,999,11430,-.5310558E-4,-.7025E-4,0
STARLINK-11194 [DTC],2024-124E,2026-06-30T19:12:51.834816,15.69714101,.00006429,53.1585,323.3508,80.9696,279.1395,0,U,60187,999,11430,.21302302E-4,.1994E-4,0
